LUR-1                   
1 60506U 24149AQ  26068.79566301  .00009121  00000+0  32985-3 0  9998
2 60506  97.3790 148.4255 0002777 309.1571  50.9421 15.28658648 86785
STARLINK-35871          
1 66566U 25268K   26068.10857994  .00042095  00000+0  15307-2 0  9994
2 66566  43.0044 350.1058 0001740 286.9653  73.1008 15.27576379 17873
